XRISM                   
1 57800U 23137A   26091.48746521  .00006218  00000+0  34975-3 0  9998
2 57800  31.0014 136.1761 0007907 268.4548  91.5185 15.11770002141241
ACS3                    
1 59588U 24077B   26091.53053179  .00037824  00000+0  29532-1 0  9991
2 59588  97.1960  27.5089 0073128  24.9280 335.5388 13.90722878 97374
HTV-X1                  
1 66174U 25241A   26091.47442409  .00001232  00000+0  50371-4 0  9997
2 66174  51.6374 323.2502 0007223 261.0182  98.9982 15.32489270 24432
SZ-21 MODULE            
1 66515U 25246C   26091.28153335  .00041682  00000+0  33251-3 0  9997
2 66515  41.4741  64.1049 0002480 219.0022 141.0642 15.70350675 21628
