CCSDS_OMM_VERS = 2.0
CREATION_DATE  = 
ORIGINATOR     = 

OBJECT_NAME    = XRISM
OBJECT_ID      = 2023-137A
CENTER_NAME    = EARTH
REF_FRAME      = TEME
TIME_SYSTEM    = UTC
MEAN_ELEMENT_THEORY = SGP/SGP4

EPOCH          = 2026-04-01T11:41:56.994144
MEAN_MOTION    = 15.11770002
ECCENTRICITY   = .0007907
INCLINATION    = 31.0014
RA_OF_ASC_NODE = 136.1761
ARG_OF_PERICENTER = 268.4548
MEAN_ANOMALY   = 91.5185

EPHEMERIS_TYPE = 0
CLASSIFICATION_TYPE = U
NORAD_CAT_ID   = 57800
ELEMENT_SET_NO = 999
REV_AT_EPOCH   = 14124
BSTAR          = .34975E-3
MEAN_MOTION_DOT = .6218E-4
MEAN_MOTION_DDOT = 0

CCSDS_OMM_VERS = 2.0
CREATION_DATE  = 
ORIGINATOR     = 

OBJECT_NAME    = ACS3
OBJECT_ID      = 2024-077B
CENTER_NAME    = EARTH
REF_FRAME      = TEME
TIME_SYSTEM    = UTC
MEAN_ELEMENT_THEORY = SGP/SGP4

EPOCH          = 2026-04-01T12:43:57.946656
MEAN_MOTION    = 13.90722878
ECCENTRICITY   = .0073128
INCLINATION    = 97.1960
RA_OF_ASC_NODE = 27.5089
ARG_OF_PERICENTER = 24.9280
MEAN_ANOMALY   = 335.5388

EPHEMERIS_TYPE = 0
CLASSIFICATION_TYPE = U
NORAD_CAT_ID   = 59588
ELEMENT_SET_NO = 999
REV_AT_EPOCH   = 9737
BSTAR          = .29532E-1
MEAN_MOTION_DOT = .37824E-3
MEAN_MOTION_DDOT = 0

CCSDS_OMM_VERS = 2.0
CREATION_DATE  = 
ORIGINATOR     = 

OBJECT_NAME    = HTV-X1
OBJECT_ID      = 2025-241A
CENTER_NAME    = EARTH
REF_FRAME      = TEME
TIME_SYSTEM    = UTC
MEAN_ELEMENT_THEORY = SGP/SGP4

EPOCH          = 2026-04-01T11:23:10.241376
MEAN_MOTION    = 15.32489270
ECCENTRICITY   = .0007223
INCLINATION    = 51.6374
RA_OF_ASC_NODE = 323.2502
ARG_OF_PERICENTER = 261.0182
MEAN_ANOMALY   = 98.9982

EPHEMERIS_TYPE = 0
CLASSIFICATION_TYPE = U
NORAD_CAT_ID   = 66174
ELEMENT_SET_NO = 999
REV_AT_EPOCH   = 2443
BSTAR          = .50371E-4
MEAN_MOTION_DOT = .1232E-4
MEAN_MOTION_DDOT = 0

CCSDS_OMM_VERS = 2.0
CREATION_DATE  = 
ORIGINATOR     = 

OBJECT_NAME    = SZ-21 MODULE
OBJECT_ID      = 2025-246C
CENTER_NAME    = EARTH
REF_FRAME      = TEME
TIME_SYSTEM    = UTC
MEAN_ELEMENT_THEORY = SGP/SGP4

EPOCH          = 2026-04-01T06:45:24.481440
MEAN_MOTION    = 15.70350675
ECCENTRICITY   = .000248
INCLINATION    = 41.4741
RA_OF_ASC_NODE = 64.1049
ARG_OF_PERICENTER = 219.0022
MEAN_ANOMALY   = 141.0642

EPHEMERIS_TYPE = 0
CLASSIFICATION_TYPE = U
NORAD_CAT_ID   = 66515
ELEMENT_SET_NO = 999
REV_AT_EPOCH   = 2162
BSTAR          = .33251E-3
MEAN_MOTION_DOT = .41682E-3
MEAN_MOTION_DDOT = 0

